FLOCK 4G-21             
1 62651U 25009AU  26068.19487675  .00013648  00000+0  49619-3 0  9998
2 62651  97.4032 151.1274 0000465 329.5782  30.5431 15.28381075 63677
STARLINK-34065          
1 63813U 25092K   26068.33080767  .00045434  00000+0  16484-2 0  9999
2 63813  42.9906 170.7214 0003326 146.7336 213.3725 15.27617827 48549
